IRIDIUM 36 [-]          
1 24967U 97056C   23244.85600684  .00000463  00000+0  15144-3 0  9997
2 24967  86.3914  87.7135 0002011  82.5884 277.5541 14.36377271358256
IRIDIUM 39 [-]          
1 25042U 97069D   23244.94222518  .00000626  00000+0  16538-3 0  9991
2 25042  86.3934 131.3176 0017683 335.6648  24.3719 14.47330656354276
IRIDIUM 38 [-]          
1 25043U 97069E   23244.46840416  .00000475  00000+0  15412-3 0  9994
2 25043  86.4011 148.3741 0004282  93.0959 267.0729 14.36858619351907
IRIDIUM 42 [-]          
1 25077U 97077A   23244.73713000  .00000478  00000+0  16055-3 0  9995
2 25077  86.4022 153.6276 0002849  87.1179 273.0343 14.35177604347296
IRIDIUM 44 [-]          
1 25078U 97077B   23244.76846695  .00000473  00000+0  14710-3 0  9997
2 25078  86.3986 137.3171 0003442  54.7702 305.3819 14.38958888349552
IRIDIUM 45 [-]          
1 25104U 97082A   23245.04684288  .00014025  00000+0  92980-3 0  9996
2 25104  86.3829 357.0405 0182566 203.8862 155.3821 14.94435622353805
IRIDIUM 24 [-]          
1 25105U 97082B   23244.72527961  .00000633  00000+0  19186-3 0  9992
2 25105  86.3969 357.4045 0013702  80.7443 279.5306 14.40704542348944
IRIDIUM 51 [-]          
1 25262U 98018A   23244.61275557  .00019668  00000+0  11203-2 0  9994
2 25262  86.3981   7.8828 0169782 161.7824 198.9596 15.01192398347830
